{
    "CCSDS_OMM_VERS": "3.0",
    "COMMENT": "GENERATED VIA SPACE-TRACK.ORG API",
    "CREATION_DATE": "2025-05-22T17:14:14",
    "ORIGINATOR": "18 SPCS",
    "OBJECT_NAME": "NAVSTAR 78 (USA 293)",
    "OBJECT_ID": "2019-056A",
    "CENTER_NAME": "EARTH",
    "REF_FRAME": "TEME",
    "TIME_SYSTEM": "UTC",
    "MEAN_ELEMENT_THEORY": "SGP4",
    "EPOCH": "2025-05-22T00:06:28.781856",
    "MEAN_MOTION": "2.00561640",
    "ECCENTRICITY": "0.00514570",
    "INCLINATION": "55.7895",
    "RA_OF_ASC_NODE": "346.6709",
    "ARG_OF_PERICENTER": "192.9903",
    "MEAN_ANOMALY": "338.8813",
    "EPHEMERIS_TYPE": "0",
    "CLASSIFICATION_TYPE": "U",
    "NORAD_CAT_ID": "44506",
    "ELEMENT_SET_NO": "999",
    "REV_AT_EPOCH": "4222",
    "BSTAR": "0.00000000000000",
    "MEAN_MOTION_DOT": "-0.00000061",
    "MEAN_MOTION_DDOT": "0.0000000000000",
    "SEMIMAJOR_AXIS": "26560.521",
    "PERIOD": "717.984",
    "APOAPSIS": "20319.059",
    "PERIAPSIS": "20045.714",
    "OBJECT_TYPE": "PAYLOAD",
    "RCS_SIZE": "LARGE",
    "COUNTRY_CODE": "US",
    "LAUNCH_DATE": "2019-08-22",
    "SITE": "AFETR",
    "DECAY_DATE": null,
    "FILE": "4736220",
    "GP_ID": "288145733",
    "TLE_LINE0": "0 NAVSTAR 78 (USA 293)",
    "TLE_LINE1": "1 44506U 19056A   25142.00449979 -.00000061  00000-0  00000-0 0  9994",
    "TLE_LINE2": "2 44506  55.7895 346.6709 0051457 192.9903 338.8813  2.00561640 42228"
}